{
  "norad_id": 65152,
  "name": "KUIPER-00115",
  "history": [
    {
      "epoch": "2026-03-28T17:02:26.361312Z",
      "apogee_km": 630.0807362993428,
      "perigee_km": 629.0084208641883,
      "latitude_deg": 1.4224778832227841e-05,
      "longitude_deg": 2.2466015697826642,
      "height_km": 629.9726553134768,
      "semi_major_axis_km": 7007.681578581765,
      "eccentricity": 7.651e-05,
      "inclination_deg": 51.9003,
      "raan_deg": 83.983,
      "arg_perigee_deg": 53.6311,
      "mean_anomaly_deg": 306.4722,
      "mean_motion_rev_day": 14.79930165
    },
    {
      "epoch": "2026-03-29T04:23:08.449152Z",
      "apogee_km": 630.0718933500311,
      "perigee_km": 629.0067265509197,
      "latitude_deg": 2.0049009721262868e-05,
      "longitude_deg": -170.48508350460057,
      "height_km": 629.9903680808329,
      "semi_major_axis_km": 7007.676309950475,
      "eccentricity": 7.6e-05,
      "inclination_deg": 51.9002,
      "raan_deg": 81.8926,
      "arg_perigee_deg": 56.3754,
      "mean_anomaly_deg": 303.7281,
      "mean_motion_rev_day": 14.79931834
    },
    {
      "epoch": "2026-03-30T04:41:47.308416Z",
      "apogee_km": 630.059111875451,
      "perigee_km": 629.0135670132058,
      "latitude_deg": -4.448733231291656e-05,
      "longitude_deg": 179.37484436653924,
      "height_km": 630.0135816493015,
      "semi_major_axis_km": 7007.673339444328,
      "eccentricity": 7.46e-05,
      "inclination_deg": 51.9005,
      "raan_deg": 77.4129,
      "arg_perigee_deg": 59.0617,
      "mean_anomaly_deg": 301.0418,
      "mean_motion_rev_day": 14.79932775
    },
    {
      "epoch": "2026-03-30T06:19:01.907328Z",
      "apogee_km": 630.0230330351151,
      "perigee_km": 629.0486862007128,
      "latitude_deg": 5.272617819594326e-06,
      "longitude_deg": 154.69939376489955,
      "height_km": 630.0823399606181,
      "semi_major_axis_km": 7007.672859617914,
      "eccentricity": 6.952e-05,
      "inclination_deg": 51.9007,
      "raan_deg": 77.1148,
      "arg_perigee_deg": 65.8203,
      "mean_anomaly_deg": 294.2832,
      "mean_motion_rev_day": 14.79932927
    },
    {
      "epoch": "2026-03-30T09:33:31.067136Z",
      "apogee_km": 630.0645736156266,
      "perigee_km": 629.0005290709514,
      "latitude_deg": -2.6155153197151883e-05,
      "longitude_deg": 105.34724927765352,
      "height_km": 630.0319086667915,
      "semi_major_axis_km": 7007.669551343289,
      "eccentricity": 7.592e-05,
      "inclination_deg": 51.9,
      "raan_deg": 76.5173,
      "arg_perigee_deg": 62.3917,
      "mean_anomaly_deg": 297.7122,
      "mean_motion_rev_day": 14.79933975
    },
    {
      "epoch": "2026-03-30T16:02:29.324544Z",
      "apogee_km": 630.0689294016793,
      "perigee_km": 628.9802190995033,
      "latitude_deg": 3.408796646177481e-05,
      "longitude_deg": 6.6437162104393455,
      "height_km": 630.0009094629031,
      "semi_major_axis_km": 7007.661574250591,
      "eccentricity": 7.768e-05,
      "inclination_deg": 51.9004,
      "raan_deg": 75.3227,
      "arg_perigee_deg": 60.3119,
      "mean_anomaly_deg": 299.7921,
      "mean_motion_rev_day": 14.79936502
    },
    {
      "epoch": "2026-03-31T16:21:07.726752Z",
      "apogee_km": 630.1145722674182,
      "perigee_km": 628.9386863104246,
      "latitude_deg": 1.0388485067175482e-05,
      "longitude_deg": -3.4955137583778746,
      "height_km": 629.9432930468093,
      "semi_major_axis_km": 7007.663629288922,
      "eccentricity": 8.39e-05,
      "inclination_deg": 51.8949,
      "raan_deg": 70.8419,
      "arg_perigee_deg": 56.0119,
      "mean_anomaly_deg": 304.0923,
      "mean_motion_rev_day": 14.79935851
    },
    {
      "epoch": "2026-04-01T15:02:32.433792Z",
      "apogee_km": 630.2398183198775,
      "perigee_km": 628.8761208787937,
      "latitude_deg": -1.9204050130276237e-05,
      "longitude_deg": 11.040365127720714,
      "height_km": 630.0580304417189,
      "semi_major_axis_km": 7007.694969599335,
      "eccentricity": 9.73e-05,
      "inclination_deg": 51.8986,
      "raan_deg": 66.6626,
      "arg_perigee_deg": 68.9063,
      "mean_anomaly_deg": 291.2003,
      "mean_motion_rev_day": 14.79925923
    },
    {
      "epoch": "2026-04-02T15:21:11.172096Z",
      "apogee_km": 630.1143310964871,
      "perigee_km": 628.9586255864397,
      "latitude_deg": -2.2850623830889113e-06,
      "longitude_deg": 0.9013621669963072,
      "height_km": 630.1717149166683,
      "semi_major_axis_km": 7007.673478341463,
      "eccentricity": 8.246e-05,
      "inclination_deg": 51.901,
      "raan_deg": 62.1834,
      "arg_perigee_deg": 78.966,
      "mean_anomaly_deg": 281.1395,
      "mean_motion_rev_day": 14.79932731
    },
    {
      "epoch": "2026-04-03T02:41:52.845216Z",
      "apogee_km": 630.0684985299467,
      "perigee_km": 628.922610454636,
      "latitude_deg": -4.797109102333878e-05,
      "longitude_deg": -171.82893008214984,
      "height_km": 630.0893297004747,
      "semi_major_axis_km": 7007.632554492291,
      "eccentricity": 8.176e-05,
      "inclination_deg": 51.9008,
      "raan_deg": 60.0927,
      "arg_perigee_deg": 74.6076,
      "mean_anomaly_deg": 285.4976,
      "mean_motion_rev_day": 14.79945695
    },
    {
      "epoch": "2026-04-04T20:50:08.458944Z",
      "apogee_km": 629.8457137858541,
      "perigee_km": 628.7973979858943,
      "latitude_deg": 4.290327065027236e-05,
      "longitude_deg": -93.3874499446333,
      "height_km": 630.1310634421935,
      "semi_major_axis_km": 7007.458555885874,
      "eccentricity": 7.48e-05,
      "inclination_deg": 51.9024,
      "raan_deg": 52.3297,
      "arg_perigee_deg": 96.9505,
      "mean_anomaly_deg": 263.1543,
      "mean_motion_rev_day": 14.80000817
    },
    {
      "epoch": "2026-04-05T06:33:36.271008Z",
      "apogee_km": 629.9664758636936,
      "perigee_km": 628.943367443133,
      "latitude_deg": 2.9920067146866798e-06,
      "longitude_deg": 118.5538681201734,
      "height_km": 630.1927320110306,
      "semi_major_axis_km": 7007.591921653413,
      "eccentricity": 7.3e-05,
      "inclination_deg": 51.9011,
      "raan_deg": 50.5363,
      "arg_perigee_deg": 89.0883,
      "mean_anomaly_deg": 271.0163,
      "mean_motion_rev_day": 14.79958567
    },
    {
      "epoch": "2026-04-05T21:08:47.752800Z",
      "apogee_km": 630.6603660818973,
      "perigee_km": 628.4024953135267,
      "latitude_deg": 7.21192224794226e-06,
      "longitude_deg": -103.52971767949015,
      "height_km": 630.2884633617176,
      "semi_major_axis_km": 7007.668430697712,
      "eccentricity": 0.0001611,
      "inclination_deg": 51.9009,
      "raan_deg": 47.8496,
      "arg_perigee_deg": 90.624,
      "mean_anomaly_deg": 269.4907,
      "mean_motion_rev_day": 14.7993433
    },
    {
      "epoch": "2026-04-06T03:37:46.189056Z",
      "apogee_km": 630.4712561049182,
      "perigee_km": 628.6949392145634,
      "latitude_deg": 6.490615125420361e-05,
      "longitude_deg": 157.7659991225685,
      "height_km": 630.8312257861621,
      "semi_major_axis_km": 7007.7200976597405,
      "eccentricity": 0.00012674,
      "inclination_deg": 51.9016,
      "raan_deg": 46.655,
      "arg_perigee_deg": 124.4621,
      "mean_anomaly_deg": 235.6462,
      "mean_motion_rev_day": 14.79917963
    },
    {
      "epoch": "2026-04-07T13:39:54.798336Z",
      "apogee_km": 629.9854251031311,
      "perigee_km": 629.2201799166978,
      "latitude_deg": -4.217834006819253e-05,
      "longitude_deg": -0.43775770592231433,
      "height_km": 630.3902337199415,
      "semi_major_axis_km": 7007.739802509915,
      "eccentricity": 5.46e-05,
      "inclination_deg": 51.9023,
      "raan_deg": 40.385,
      "arg_perigee_deg": 96.1706,
      "mean_anomaly_deg": 263.9318,
      "mean_motion_rev_day": 14.79911721
    },
    {
      "epoch": "2026-04-08T12:21:20.073888Z",
      "apogee_km": 629.9537605923852,
      "perigee_km": 629.2239760204611,
      "latitude_deg": -6.360948216319871e-05,
      "longitude_deg": 14.09484819000341,
      "height_km": 630.3642052107598,
      "semi_major_axis_km": 7007.725868306423,
      "eccentricity": 5.207e-05,
      "inclination_deg": 51.9021,
      "raan_deg": 36.2048,
      "arg_perigee_deg": 94.5616,
      "mean_anomaly_deg": 265.5405,
      "mean_motion_rev_day": 14.79916135
    },
    {
      "epoch": "2026-04-09T04:33:46.191744Z",
      "apogee_km": 629.9613383439855,
      "perigee_km": 629.1689073879315,
      "latitude_deg": -3.294705885177108e-05,
      "longitude_deg": 127.3342373388619,
      "height_km": 630.3696400033441,
      "semi_major_axis_km": 7007.702122865958,
      "eccentricity": 5.654e-05,
      "inclination_deg": 51.9018,
      "raan_deg": 33.2186,
      "arg_perigee_deg": 98.4592,
      "mean_anomaly_deg": 261.6434,
      "mean_motion_rev_day": 14.79923657
    },
    {
      "epoch": "2026-04-10T04:52:24.843648Z",
      "apogee_km": 629.9263146867643,
      "perigee_km": 629.1361300180115,
      "latitude_deg": -9.673144709312821e-06,
      "longitude_deg": 117.19549657060458,
      "height_km": 630.3401297245126,
      "semi_major_axis_km": 7007.668222352388,
      "eccentricity": 5.638e-05,
      "inclination_deg": 51.9016,
      "raan_deg": 28.7393,
      "arg_perigee_deg": 99.1303,
      "mean_anomaly_deg": 260.9723,
      "mean_motion_rev_day": 14.79934396
    },
    {
      "epoch": "2026-04-11T11:40:01.070400Z",
      "apogee_km": 629.8854948746593,
      "perigee_km": 629.1132533462333,
      "latitude_deg": -3.6801397131485705e-05,
      "longitude_deg": 8.355888108462578,
      "height_km": 630.2457262192286,
      "semi_major_axis_km": 7007.636374110446,
      "eccentricity": 5.51e-05,
      "inclination_deg": 51.9017,
      "raan_deg": 23.0653,
      "arg_perigee_deg": 90.0165,
      "mean_anomaly_deg": 270.086,
      "mean_motion_rev_day": 14.79944485
    }
  ]
}